NORAD_CAT_ID,OBJECT_NAME,OBJECT_TYPE,EPOCH,MEAN_MOTION,ECCENTRICITY,INCLINATION,RA_OF_ASC_NODE,ARG_OF_PERICENTER,MEAN_ANOMALY,BSTAR,MEAN_MOTION_DOT,MEAN_MOTION_DDOT,TLE_LINE0,TLE_LINE1,TLE_LINE2,SEMIMAJOR_AXIS,PERIOD,APOGEE,PERIGEE,DECAYED
55962.0,STARLINK-5906,PAYLOAD,2023-04-04 22:00:00,15.69899533,0.0003711,69.9959,130.0255,268.9675,297.4811,0.00054838,0.00066184,0.0,0 STARLINK-5906,1 55962U 23037BA  23094.91667824  .00066184  00000-0  54838-3 0  9999,2 55962  69.9959 130.0255 0003711 268.9675 297.4811 15.69899533  3370,6737.321,91.726,361.687,356.686,0.0
55962.0,STARLINK-5906,PAYLOAD,2023-04-05 14:00:01,15.6991609,0.0003585,69.9985,128.1506,274.6798,98.4621,9.9434e-06,9.83e-06,0.0,0 STARLINK-5906,1 55962U 23037BA  23095.58334491  .00000983  00000-0  99434-5 0  9992,2 55962  69.9985 128.1506 0003585 274.6798  98.4621 15.69916090  1302,6737.274,91.725,361.554,356.724,0.0
55962.0,STARLINK-5906,PAYLOAD,2023-04-05 16:00:00,15.69935515,0.0003527,69.9989,127.9163,272.9765,210.9925,-0.00038843,-0.00046683,0.0,0 STARLINK-5906,1 55962U 23037BA  23095.66667824 -.00046683  00000-0 -38843-3 0  9994,2 55962  69.9989 127.9163 0003527 272.9765 210.9925 15.69935515  3496,6737.218,91.724,361.46,356.707,0.0
55962.0,STARLINK-5906,PAYLOAD,2023-04-05 22:00:00,15.69863101,0.0003582,69.9978,127.2134,266.7497,189.7335,0.00091205,0.00110635,0.0,0 STARLINK-5906,1 55962U 23037BA  23095.91667824  .00110635  00000-0  91205-3 0  9990,2 55962  69.9978 127.2134 0003582 266.7497 189.7335 15.69863101  1306,6737.426,91.728,361.704,356.877,0.0
55962.0,STARLINK-5906,PAYLOAD,2023-04-06 10:00:00,15.69900203,0.000353,69.9997,125.8076,273.7725,127.6856,0.00048179,0.00058065,0.0,0 STARLINK-5906,1 55962U 23037BA  23096.41667824  .00058065  00000-0  48179-3 0  9996,2 55962  69.9997 125.8076 0003530 273.7725 127.6856 15.69900203  3611,6737.32,91.726,361.563,356.806,0.0
55962.0,STARLINK-5906,PAYLOAD,2023-04-06 14:00:01,15.69942149,0.0003558,69.9998,125.3387,272.8944,350.2897,-0.00013682,-0.00016645,0.0,0 STARLINK-5906,1 55962U 23037BA  23096.58335648 -.00016645  00000-0 -13682-3 0  9991,2 55962  69.9998 125.3387 0003558 272.8944 350.2897 15.69942149  1303,6737.2,91.723,361.462,356.667,0.0
55962.0,STARLINK-5906,PAYLOAD,2023-04-06 22:00:00,15.69878894,0.0003457,70.0001,124.4017,263.8877,82.5975,0.00066766,0.00080693,0.0,0 STARLINK-5906,1 55962U 23037BA  23096.91667824  .00080693  00000-0  66766-3 0  9995,2 55962  70.0001 124.4017 0003457 263.8877  82.5975 15.69878894  1301,6737.38,91.727,361.575,356.916,0.0
55962.0,STARLINK-5906,PAYLOAD,2023-04-07 14:00:01,15.69954177,0.0003369,69.9998,122.5274,267.0063,246.1157,-0.00035941,-0.00043261,0.0,0 STARLINK-5906,1 55962U 23037BA  23097.58334491 -.00043261  00000-0 -35941-3 0  9993,2 55962  69.9998 122.5274 0003369 267.0063 246.1157 15.69954177  3796,6737.165,91.722,361.3,356.76,0.0
55962.0,STARLINK-5906,PAYLOAD,2023-04-08 10:45:32,15.69924345,0.0003146,69.9999,120.0956,255.5073,104.5774,3.8217e-05,4.385e-05,0.0,0 STARLINK-5906,1 55962U 23037BA  23098.44829114  .00004385  00000-0  38217-4 0  9992,2 55962  69.9999 120.0956 0003146 255.5073 104.5774 15.69924345  3935,6737.25,91.724,361.235,356.996,0.0
55962.0,STARLINK-5906,PAYLOAD,2023-04-08 18:24:17,15.69941879,0.0003347,70.0,119.1999,258.5635,101.5185,0.00015176,0.00018088,0.0,0 STARLINK-5906,1 55962U 23037BA  23098.76687209  .00018088  00000-0  15176-3 0  9997,2 55962  70.0000 119.1999 0003347 258.5635 101.5185 15.69941879  3986,6737.2,91.723,361.32,356.81,0.0
55962.0,STARLINK-5906,PAYLOAD,2023-04-09 00:31:18,15.69943769,0.0002897,69.9998,118.4842,255.533,104.5544,0.00015201,0.00018118,0.0,0 STARLINK-5906,1 55962U 23037BA  23099.02173934  .00018118  00000-0  15201-3 0  9995,2 55962  69.9998 118.4842 0002897 255.5330 104.5544 15.69943769  4024,6737.195,91.723,361.012,357.108,0.0
55962.0,STARLINK-5906,PAYLOAD,2023-04-09 18:52:19,15.69938655,0.0003572,70.0007,116.3344,263.7176,96.3613,0.00010642,0.00012611,0.0,0 STARLINK-5906,1 55962U 23037BA  23099.78633970  .00012611  00000-0  10642-3 0  9995,2 55962  70.0007 116.3344 0003572 263.7176  96.3613 15.69938655  4148,6737.21,91.723,361.481,356.668,0.0
55962.0,STARLINK-5906,PAYLOAD,2023-04-10 04:02:50,15.69931264,0.0003427,70.0013,115.259,260.689,99.3918,6.0477e-05,7.067e-05,0.0,0 STARLINK-5906,1 55962U 23037BA  23100.16864102  .00007067  00000-0  60477-4 0  9994,2 55962  70.0013 115.2590 0003427 260.6890  99.3918 15.69931264  4201,6737.231,91.724,361.405,356.787,0.0
55962.0,STARLINK-5906,PAYLOAD,2023-04-10 13:13:21,15.69926083,0.0003564,70.0008,114.1843,260.2244,99.855,2.2435e-05,2.486e-05,0.0,0 STARLINK-5906,1 55962U 23037BA  23100.55094167  .00002486  00000-0  22435-4 0  9995,2 55962  70.0008 114.1843 0003564 260.2244  99.8550 15.69926083  3923,6737.245,91.724,361.512,356.709,0.0
55962.0,STARLINK-5906,PAYLOAD,2023-04-10 17:48:35,15.69945503,0.0004568,70.0008,113.6495,260.9268,99.1411,6.1501e-05,7.196e-05,0.0,0 STARLINK-5906,1 55962U 23037BA  23100.74208192  .00007196  00000-0  61501-4 0  9991,2 55962  70.0008 113.6495 0004568 260.9268  99.1411 15.69945503  3958,6737.19,91.723,362.132,355.977,0.0
55962.0,STARLINK-5906,PAYLOAD,2023-04-11 04:30:21,15.7101558,0.0007912,70.0014,112.3921,263.878,96.1515,0.0032161,0.00425974,0.0,0 STARLINK-5906,1 55962U 23037BA  23101.18774434  .00425974  00000-0  32161-2 0  9993,2 55962  70.0014 112.3921 0007912 263.8780  96.1515 15.71015580  4366,6734.13,91.66,361.323,350.667,0.0
55962.0,STARLINK-5906,PAYLOAD,2023-04-11 12:00:00,15.69907727,0.0003589,70.0009,111.5161,277.0348,45.292,0.00037849,0.00045516,0.0,0 STARLINK-5906,1 55962U 23037BA  23101.50001157  .00045516  00000-0  37849-3 0  9993,2 55962  70.0009 111.5161 0003589 277.0348  45.2920 15.69907727  1306,6737.298,91.725,361.581,356.745,0.0
55962.0,STARLINK-5906,PAYLOAD,2023-04-11 18:16:38,15.6995189,0.0003523,70.0027,110.7832,274.7253,85.354,0.0001016,0.00012036,0.0,0 STARLINK-5906,1 55962U 23037BA  23101.76155280  .00012036  00000-0  10160-3 0  9996,2 55962  70.0027 110.7832 0003523 274.7253  85.3540 15.69951890  4114,6737.172,91.723,361.41,356.663,0.0
55962.0,STARLINK-5906,PAYLOAD,2023-04-12 03:27:09,15.69927968,0.0003759,69.9997,109.707,270.7127,89.3638,2.7855e-05,3.138e-05,0.0,0 STARLINK-5906,1 55962U 23037BA  23102.14385928  .00003138  00000-0  27855-4 0  9996,2 55962  69.9997 109.7070 0003759 270.7127  89.3638 15.69927968  4511,6737.24,91.724,361.638,356.573,0.0
55962.0,STARLINK-5906,PAYLOAD,2023-04-12 09:34:10,15.69924721,0.000336,70.0012,108.9899,266.9491,93.1321,1.5339e-05,1.632e-05,0.0,0 STARLINK-5906,1 55962U 23037BA  23102.39872764  .00001632  00000-0  15339-4 0  9993,2 55962  70.0012 108.9899 0003360 266.9491  93.1321 15.69924721  4214,6737.249,91.724,361.378,356.851,0.0
55962.0,STARLINK-5906,PAYLOAD,2023-04-13 10:02:13,15.69895182,0.000262,70.0027,106.1242,285.7988,74.2919,-6.8983e-05,-8.487e-05,0.0,0 STARLINK-5906,1 55962U 23037BA  23103.41820807 -.00008487  00000-0 -68983-4 0  9998,2 55962  70.0027 106.1242 0002620 285.7988  74.2919 15.69895182  4378,6737.334,91.726,360.964,357.434,0.0
55962.0,STARLINK-5906,PAYLOAD,2023-04-14 08:58:28,15.69945873,0.0003461,70.0013,103.438,280.6782,79.4024,9.4191e-05,0.00011138,0.0,0 STARLINK-5906,1 55962U 23037BA  23104.37394453  .00011138  00000-0  94191-4 0  9992,2 55962  70.0013 103.4380 0003461 280.6782  79.4024 15.69945873  4867,6737.189,91.723,361.386,356.722,0.0
55962.0,STARLINK-5906,PAYLOAD,2023-04-14 10:30:13,15.69947356,0.000322,70.0023,103.2556,272.624,87.4587,0.00013545,0.00016121,0.0,0 STARLINK-5906,1 55962U 23037BA  23104.43766037  .00016121  00000-0  13545-3 0  9990,2 55962  70.0023 103.2556 0003220 272.6240  87.4587 15.69947356  4539,6737.185,91.723,361.219,356.88,0.0
55962.0,STARLINK-5906,PAYLOAD,2023-04-15 00:16:00,15.69928584,0.0002903,70.0026,101.644,230.113,129.9811,3.2907e-05,3.747e-05,0.0,0 STARLINK-5906,1 55962U 23037BA  23105.01111328  .00003747  00000-0  32907-4 0  9996,2 55962  70.0026 101.6440 0002903 230.1130 129.9811 15.69928584  4961,6737.238,91.724,361.059,357.147,0.0
55962.0,STARLINK-5906,PAYLOAD,2023-04-15 09:26:30,15.69935637,0.0003324,70.0009,100.5722,263.5683,96.5135,9.5553e-05,0.00011298,0.0,0 STARLINK-5906,1 55962U 23037BA  23105.39341426  .00011298  00000-0  95553-4 0  9997,2 55962  70.0009 100.5722 0003324 263.5683  96.5135 15.69935637  4688,6737.218,91.724,361.323,356.844,0.0
55962.0,STARLINK-5906,PAYLOAD,2023-04-15 17:05:16,15.69926026,0.000296,69.9999,99.6752,263.6866,96.3992,6.8973e-05,8.089e-05,0.0,0 STARLINK-5906,1 55962U 23037BA  23105.71200055  .00008089  00000-0  68973-4 0  9995,2 55962  69.9999  99.6752 0002960 263.6866  96.3992 15.69926026  5078,6737.246,91.724,361.105,357.116,0.0
55962.0,STARLINK-5906,PAYLOAD,2023-04-16 09:54:33,15.69925638,0.0003157,70.0019,97.7046,269.304,90.7794,3.2584e-05,3.707e-05,0.0,0 STARLINK-5906,1 55962U 23037BA  23106.41288405  .00003707  00000-0  32584-4 0  9999,2 55962  70.0019  97.7046 0003157 269.3040  90.7794 15.69925638  5183,6737.247,91.724,361.239,356.985,0.0
55962.0,STARLINK-5906,PAYLOAD,2023-04-17 08:50:50,15.69923861,0.0002556,70.0005,95.0186,264.9524,95.138,3.7576e-05,4.308e-05,0.0,0 STARLINK-5906,1 55962U 23037BA  23107.36863978  .00004308  00000-0  37576-4 0  9992,2 55962  70.0005  95.0186 0002556 264.9524  95.1380 15.69923861  5337,6737.252,91.724,360.839,357.395,0.0
55962.0,STARLINK-5906,PAYLOAD,2023-04-18 07:47:06,15.69938269,0.000237,70.0017,92.3311,261.417,98.6757,8.7018e-05,0.00010268,0.0,0 STARLINK-5906,1 55962U 23037BA  23108.32438483  .00010268  00000-0  87018-4 0  9996,2 55962  70.0017  92.3311 0002370 261.4170  98.6757 15.69938269  5146,6737.211,91.723,360.672,357.479,0.0
55962.0,STARLINK-5906,PAYLOAD,2023-04-19 08:15:08,15.69931966,0.000317,70.0017,89.465,259.8927,100.1912,8.6892e-05,0.00010251,0.0,0 STARLINK-5906,1 55962U 23037BA  23109.34385211  .00010251  00000-0  86892-4 0  9990,2 55962  70.0017  89.4650 0003170 259.8927 100.1912 15.69931966  5643,6737.229,91.724,361.229,356.958,0.0
